{
  "type": "FeatureCollection",
  "features": [
    {
      "type": "Feature",
      "properties": {
        "norad_id": 66668,
        "name": "TRANSPORTER-15 C",
        "group": "last-30-days",
        "lat": 15.42196451945937,
        "lon": -110.44926690876694,
        "alt_km": 516.9112475861621,
        "timestamp": "2025-12-21T22:41:40.164035+00:00",
        "meta_object_name": "TRANSPORTER-15 C",
        "meta_object_id": "2025-276C",
        "meta_epoch": "2025-12-21T10:53:27.352320",
        "meta_mean_motion": 15.1709836,
        "meta_eccentricity": 0.00076781,
        "meta_inclination": 97.4282,
        "meta_ra_of_asc_node": 67.0061,
        "meta_arg_of_pericenter": 272.2532,
        "meta_mean_anomaly": 87.7823,
        "meta_ephemeris_type": 0,
        "meta_classification_type": "U",
        "meta_norad_cat_id": 66668,
        "meta_element_set_no": 999,
        "meta_rev_at_epoch": 344,
        "meta_bstar": 0.00084519668,
        "meta_mean_motion_dot": 0.00016718,
        "meta_mean_motion_ddot": 0,
        "tle_line1": "1 66668U 25276C   25355.45378880  .00016718  00000+0  84520-3 0  9991",
        "tle_line2": "2 66668  97.4282  67.0061 0007678 272.2532  87.7823 15.17098360  3443"
      },
      "geometry": {
        "type": "Point",
        "coordinates": [
          -110.44926690876694,
          15.42196451945937
        ]
      }
    },
    {
      "type": "Feature",
      "properties": {
        "norad_id": 66669,
        "name": "TRANSPORTER-15 D",
        "group": "last-30-days",
        "lat": -69.75271767053671,
        "lon": 88.27205067871826,
        "alt_km": 444.14757955833375,
        "timestamp": "2025-12-21T22:41:40.164047+00:00",
        "meta_object_name": "TRANSPORTER-15 D",
        "meta_object_id": "2025-276D",
        "meta_epoch": "2025-12-21T02:39:18.210816",
        "meta_mean_motion": 15.34134881,
        "meta_eccentricity": 0.00748198,
        "meta_inclination": 97.4314,
        "meta_ra_of_asc_node": 66.7079,
        "meta_arg_of_pericenter": 232.3102,
        "meta_mean_anomaly": 127.1341,
        "meta_ephemeris_type": 0,
        "meta_classification_type": "U",
        "meta_norad_cat_id": 66669,
        "meta_element_set_no": 999,
        "meta_rev_at_epoch": 339,
        "meta_bstar": 0.0027830351,
        "meta_mean_motion_dot": 0.00101698,
        "meta_mean_motion_ddot": 0,
        "tle_line1": "1 66669U 25276D   25355.11062744  .00101698  00000+0  27830-2 0  9996",
        "tle_line2": "2 66669  97.4314  66.7079 0074819 232.3102 127.1341 15.34134881  3392"
      },
      "geometry": {
        "type": "Point",
        "coordinates": [
          88.27205067871826,
          -69.75271767053671
        ]
      }
    },
    {
      "type": "Feature",
      "properties": {
        "norad_id": 66670,
        "name": "TRANSPORTER-15 E",
        "group": "last-30-days",
        "lat": 8.679482534513681,
        "lon": -111.35994241181102,
        "alt_km": 517.3980389371,
        "timestamp": "2025-12-21T22:41:40.164057+00:00",
        "meta_object_name": "TRANSPORTER-15 E",
        "meta_object_id": "2025-276E",
        "meta_epoch": "2025-12-21T10:51:41.863104",
        "meta_mean_motion": 15.17166731,
        "meta_eccentricity": 0.00071176,
        "meta_inclination": 97.4306,
        "meta_ra_of_asc_node": 67.015,
        "meta_arg_of_pericenter": 276.5154,
        "meta_mean_anomaly": 83.5269,
        "meta_ephemeris_type": 0,
        "meta_classification_type": "U",
        "meta_norad_cat_id": 66670,
        "meta_element_set_no": 999,
        "meta_rev_at_epoch": 344,
        "meta_bstar": 0.0008677817,
        "meta_mean_motion_dot": 0.00017199,
        "meta_mean_motion_ddot": 0,
        "tle_line1": "1 66670U 25276E   25355.45256786  .00017199  00000+0  86778-3 0  9995",
        "tle_line2": "2 66670  97.4306  67.0150 0007117 276.5154  83.5269 15.17166731  3443"
      },
      "geometry": {
        "type": "Point",
        "coordinates": [
          -111.35994241181102,
          8.679482534513681
        ]
      }
    },
    {
      "type": "Feature",
      "properties": {
        "norad_id": 66671,
        "name": "TRANSPORTER-15 F",
        "group": "last-30-days",
        "lat": -2.9141068942524178,
        "lon": -112.84467715333221,
        "alt_km": 517.1217295976157,
        "timestamp": "2025-12-21T22:41:40.164067+00:00",
        "meta_object_name": "TRANSPORTER-15 F",
        "meta_object_id": "2025-276F",
        "meta_epoch": "2025-12-21T10:48:34.866720",
        "meta_mean_motion": 15.17072678,
        "meta_eccentricity": 0.00050392,
        "meta_inclination": 97.4428,
        "meta_ra_of_asc_node": 67.0503,
        "meta_arg_of_pericenter": 257.8374,
        "meta_mean_anomaly": 102.2295,
        "meta_ephemeris_type": 0,
        "meta_classification_type": "U",
        "meta_norad_cat_id": 66671,
        "meta_element_set_no": 999,
        "meta_rev_at_epoch": 344,
        "meta_bstar": 0.00048987354,
        "meta_mean_motion_dot": 9.641e-05,
        "meta_mean_motion_ddot": 0,
        "tle_line1": "1 66671U 25276F   25355.45040355  .00009641  00000+0  48987-3 0  9992",
        "tle_line2": "2 66671  97.4428  67.0503 0005039 257.8374 102.2295 15.17072678  3442"
      },
      "geometry": {
        "type": "Point",
        "coordinates": [
          -112.84467715333221,
          -2.9141068942524178
        ]
      }
    },
    {
      "type": "Feature",
      "properties": {
        "norad_id": 66672,
        "name": "TRANSPORTER-15 G",
        "group": "last-30-days",
        "lat": 21.522415763617904,
        "lon": -109.52739174265157,
        "alt_km": 516.368550949699,
        "timestamp": "2025-12-21T22:41:40.164079+00:00",
        "meta_object_name": "TRANSPORTER-15 G",
        "meta_object_id": "2025-276G",
        "meta_epoch": "2025-12-21T12:29:52.470816",
        "meta_mean_motion": 15.16615773,
        "meta_eccentricity": 0.00053596,
        "meta_inclination": 97.4398,
        "meta_ra_of_asc_node": 67.1019,
        "meta_arg_of_pericenter": 255.8599,
        "meta_mean_anomaly": 104.2039,
        "meta_ephemeris_type": 0,
        "meta_classification_type": "U",
        "meta_norad_cat_id": 66672,
        "meta_element_set_no": 999,
        "meta_rev_at_epoch": 345,
        "meta_bstar": 0.0003603491,
        "meta_mean_motion_dot": 6.98e-05,
        "meta_mean_motion_ddot": 0,
        "tle_line1": "1 66672U 25276G   25355.52074619  .00006980  00000+0  36035-3 0  9995",
        "tle_line2": "2 66672  97.4398  67.1019 0005359 255.8599 104.2039 15.16615773  3451"
      },
      "geometry": {
        "type": "Point",
        "coordinates": [
          -109.52739174265157,
          21.522415763617904
        ]
      }
    },
    {
      "type": "Feature",
      "properties": {
        "norad_id": 66673,
        "name": "TRANSPORTER-15 H",
        "group": "last-30-days",
        "lat": 2.4897940675526056,
        "lon": -112.15772741047692,
        "alt_km": 517.7974296238344,
        "timestamp": "2025-12-21T22:41:40.164089+00:00",
        "meta_object_name": "TRANSPORTER-15 H",
        "meta_object_id": "2025-276H",
        "meta_epoch": "2025-12-21T10:50:00.934080",
        "meta_mean_motion": 15.17077942,
        "meta_eccentricity": 0.00057886,
        "meta_inclination": 97.4368,
        "meta_ra_of_asc_node": 67.0319,
        "meta_arg_of_pericenter": 274.7701,
        "meta_mean_anomaly": 85.2872,
        "meta_ephemeris_type": 0,
        "meta_classification_type": "U",
        "meta_norad_cat_id": 66673,
        "meta_element_set_no": 999,
        "meta_rev_at_epoch": 344,
        "meta_bstar": 0.00046318564,
        "meta_mean_motion_dot": 9.114e-05,
        "meta_mean_motion_ddot": 0,
        "tle_line1": "1 66673U 25276H   25355.45139970  .00009114  00000+0  46319-3 0  9998",
        "tle_line2": "2 66673  97.4368  67.0319 0005788 274.7701  85.2872 15.17077942  3445"
      },
      "geometry": {
        "type": "Point",
        "coordinates": [
          -112.15772741047692,
          2.4897940675526056
        ]
      }
    },
    {
      "type": "Feature",
      "properties": {
        "norad_id": 66674,
        "name": "TRANSPORTER-15 J",
        "group": "last-30-days",
        "lat": 18.426481548836495,
        "lon": -109.99197008209077,
        "alt_km": 526.7432215872068,
        "timestamp": "2025-12-21T22:41:40.164099+00:00",
        "meta_object_name": "TRANSPORTER-15 J",
        "meta_object_id": "2025-276J",
        "meta_epoch": "2025-12-21T10:53:16.478880",
        "meta_mean_motion": 15.15191397,
        "meta_eccentricity": 0.00065005,
        "meta_inclination": 97.4372,
        "meta_ra_of_asc_node": 67.0325,
        "meta_arg_of_pericenter": 333.1103,
        "meta_mean_anomaly": 26.9792,
        "meta_ephemeris_type": 0,
        "meta_classification_type": "U",
        "meta_norad_cat_id": 66674,
        "meta_element_set_no": 999,
        "meta_rev_at_epoch": 344,
        "meta_bstar": -0.028180021,
        "meta_mean_motion_dot": -0.00494676,
        "meta_mean_motion_ddot": 0,
        "tle_line1": "1 66674U 25276J   25355.45366295 -.00494676  00000+0 -28180-1 0  9998",
        "tle_line2": "2 66674  97.4372  67.0325 0006500 333.1103  26.9792 15.15191397  3449"
      },
      "geometry": {
        "type": "Point",
        "coordinates": [
          -109.99197008209077,
          18.426481548836495
        ]
      }
    }
  ]
}